#dP2024 12 28  0  0  0.00000000      96 __u+U IGS20 FIT  IAC
## 2346 518400.00000000   900.00000000 60672 0.0000000000000
+   52   G02G03G04G05G06G07G08G09G10G11G12G13G14G15G16G17G18
+        G19G20G21G22G23G24G25G26G27G28G29G30G31G32R01R02R03
+        R04R05R07R08R09R11R12R14R15R16R17R18R19R20R21R22R24
+        R26  0  0  0  0  0  0  0  0  0  0  0  0  0  0  0  0
+          0  0  0  0  0  0  0  0  0  0  0  0  0  0  0  0  0
++         6  5  6  7  5  6  6  6  6  6  6  6  5  7  7  7  6
++         6  7  6  6  6  6  6  6  6  7  7  5  6  5  9  7  6
++         6  6  6  7  7  5  6  6  8  6  6  7  5  7  6  7  5
++         7  0  0  0  0  0  0  0  0  0  0  0  0  0  0  0  0
++         0  0  0  0  0  0  0  0  0  0  0  0  0  0  0  0  0
%c M  cc GPS ccc cccc cccc cccc cccc ccccc ccccc ccccc ccccc
%c cc cc ccc ccc cccc cccc cccc cccc ccccc ccccc ccccc ccccc
%f  0.0000000  0.000000000  0.00000000000  0.000000000000000
%f  0.0000000  0.000000000  0.00000000000  0.000000000000000
%i    0    0    0    0      0      0      0      0         0
%i    0    0    0    0      0      0      0      0         0
/* INFORMATION & ANALYSIS CENTER (IAC)      ULTRA-RAPID DATA
/* S/V CLOCKS ARE ALIGNED TO GNSS TIME                      
/* G:C1WC2W R:C1PC2P E:C1XC5X C:C2IC6I J:C1CC2S             
/* PCV:IGS20_2317 OL/AL:FES2004  NONE     YN ORB:CoN CLK:CoN
*  2024 12 28  3 30  0.00000000
PG02  20493.116813  13534.794683 -10120.521135   -281.714301
PG03  12073.876300  18822.106409  14253.854078    634.254958
PG04  14341.086915   7542.314852  21090.775251    502.885290
PG05  -5534.720394 -25934.694963   -769.831134   -197.314762
PG06  13888.706242  -9039.716454  20860.389963    -76.750900
PG07  25453.002563   6563.878113  -4686.252183    -14.376039
PG08   4542.664025  15773.696446 -20925.134365    448.473592
PG09  20194.083822  -1164.388159  17157.356740    505.345707
PG10 -10935.578138  14056.044816 -19355.013709   -252.414945
PG11    652.153434 -15896.114777  21316.306477   -752.660004
PG12  -9676.846529 -21766.277610  11510.828924   -561.024492
PG13   5728.071445 -18050.907619 -18755.856752    691.527855
PG14  13606.935330 -10086.159788 -20358.778762    568.836569
PG15  -6933.025573 -15290.589205 -21079.984375    244.792796
PG16  -1008.763340  26005.571678   3538.544299    -92.283987
PG17  22890.108468 -13196.880711  -3219.829106    500.272258
PG18 -25018.929973  -4693.835893  -7949.418236   -659.548337
PG19  19035.452862 -17064.474348   6164.487830    579.184277
PG20    676.203518 -23948.627666  11695.473642    367.535409
PG21  15599.797855  15630.421793 -15135.000867     98.775921
PG22  10290.536137 -18302.670183 -16061.924717    -89.050242
PG23 -15036.264325  -1580.594500 -21816.724283    392.346426
PG24 -18385.301438 -15066.117227 -12718.201891   -469.669267
PG25 -15432.527343  -9674.311791  19062.950078    497.565099
PG26  -5920.286686  21317.584743  14227.355963    -25.415819
PG27  -7011.997709  20028.340224 -16000.498290    -33.752236
PG28 -15631.940350   8843.066710  19555.360471   -520.225847
PG29 -20451.325027   -308.565111  16967.066950   -552.214493
PG30  21616.523590  -3401.849214 -15086.840611   -251.878082
PG31  -6306.398560  13888.607448  21496.396906   -219.111142
PG32 -20597.193315  16589.290791     40.839408   -551.809817
PR01  -3901.619108  20611.759143  14519.235257    109.257213
PR02   7378.224705   8284.548572  23009.524289    -38.873768
PR03  15459.664030  -8879.548816  18321.265665    114.003770
PR04  14904.019786 -20351.570832   3894.547617    270.252661
PR05   6512.231559 -21178.199386 -12654.095118    142.866233
PR07 -15481.546012   9146.611620 -18023.487455     97.760470
PR08 -14571.659432  20608.723655  -3473.460053     -6.191004
PR09 -15545.680614 -18541.287010   7958.588518    228.727103
PR11  -6207.340211  10664.679400  22332.457445      2.827803
PR12   6942.107681  22461.079780   9898.396773     48.928286
PR14  14207.670018   4768.327420 -20642.131575     27.495824
PR15   5214.986134 -12255.043183 -21742.319081     72.748809
PR16  -6968.848244 -22364.440170 -10053.477755     32.003129
PR17  25313.108908   -553.932366   2939.552610    152.350173
PR18  17219.512490  -7162.286327  17450.423422    179.018757
PR19   2701.280597 -10234.270448  23214.594017   -303.490299
PR20 -18940.574478  -8216.602676  14967.330726   -123.881266
PR21 -25463.016333   -267.519830  -1701.641161   -163.255332
PR22 -16298.435608   7536.877695 -18079.732321    -53.078978
PR24  19703.582080   7387.409725 -14383.021308    -85.830243
PR26 -15020.040613  19892.129559  -5438.610250   -132.365714
*  2024 12 28  3 45  0.00000000
PG02  19141.042640  13369.235639 -12546.243488   -281.706347
PG03  12190.094242  20338.000316  11917.020434    634.262197
PG04  12446.469217   9078.535254  21667.540767    502.890748
PG05  -5297.508283 -25890.069783   2115.648977   -197.315792
PG06  16008.820458  -8159.900602  19676.408690    -76.776026
PG07  25772.879814   6949.485119  -1911.213366    -14.375448
PG08   2746.157349  17260.046802 -19999.111462    448.481351
PG09  18739.883870    314.644726  18754.493200    505.359734
PG10 -11427.257971  11772.407958 -20572.406392   -252.429080
PG11   2933.003558 -14987.536035  21773.333685   -752.659756
PG12  -9579.555393 -22993.872076   8997.742695   -561.026819
PG13   7509.054903 -18999.661273 -17074.084205    691.529027
PG14  14061.625909  -7737.739606 -21084.813863    568.843253
PG15  -5377.614993 -16944.997971 -20217.602448    244.797014
PG16  -1350.785906  25420.448929   6344.050831    -92.275546
PG17  22566.230127 -12675.361063  -6009.396488    500.257399
PG18 -25651.453352  -5141.916383  -5212.868185   -659.547617
PG19  19656.743554 -17157.566377   3344.266245    579.188368
PG20   1374.544293 -22657.853026  13985.604417    367.535397
PG21  13764.654411  15279.000782 -17005.350110     98.778132
PG22  10614.643363 -16327.830372 -17813.141559    -89.052256
PG23 -15497.160255  -3998.378244 -21197.453824    392.353269
PG24 -16876.852617 -14911.613040 -14853.765090   -469.666127
PG25 -15712.094250 -11821.528501  17619.370775    497.564680
PG26  -6641.219454  19656.340071  16180.136750    -25.428977
PG27  -8420.653700  20966.018352 -13907.487382    -33.751870
PG28 -17644.024014   8049.852924  18135.991846   -520.235051
PG29 -18873.784879  -1605.935430  18625.283084   -552.211336
PG30  23067.489800  -2631.748436 -12990.265234   -251.870660
PG31  -8636.190691  12976.937505  21290.117763   -219.110746
PG32 -20628.229947  16269.265736  -2827.536633   -551.803985
PR01  -4552.818682  22110.301432  11886.618055    109.259107
PR02   5999.225493  10713.279732  22392.334536    -38.873873
PR03  14208.681247  -6876.355253  20107.343930    114.004533
PR04  14409.116168 -19864.169933   7031.530400    270.254714
PR05   7074.683808 -22459.443824  -9833.420920    142.866691
PR07 -14237.797607   7151.398194 -19858.273212     97.761582
PR08 -14118.290317  20139.829236  -6620.244225     -6.190874
PR09 -16039.366946 -19166.476144   4898.619759    228.729142
PR11  -7622.331618   8260.425281  22904.374657      2.826187
PR12   6329.662411  21206.664947  12688.572891     48.928460
PR14  15527.949184   6831.195741 -19052.279348     27.496177
PR15   6583.581912  -9886.048113 -22561.747357     72.748324
PR16  -6354.636259 -21083.622019 -12843.418021     32.003365
PR17  25474.941084   -737.079930   -287.786529    152.353293
PR18  19229.048619  -7284.742543  15150.580350    179.020414
PR19   5538.507754 -10141.756163  22746.604996   -303.491124
PR20 -16956.777406  -7971.424293  17302.520395   -123.881752
PR21 -25475.983803    -68.537650   1531.970710   -163.258325
PR22 -18405.027157   7563.230321 -15921.004151    -53.080628
PR24  17777.271430   7286.924446 -16747.157587    -85.831884
PR26 -14454.911721  19219.031136  -8509.430254   -132.365291
EOF
